{"type": "FeatureCollection", "features": [{"type": "Feature", "properties": {"norad_id": 28054, "name": "DMSP 5D-3 F16 (USA 172)", "group": "weather", "lat": -33.849200723910556, "lon": 11.811370012609352, "alt_km": 845.7826964392771, "timestamp": "2025-12-14T05:42:18.098933+00:00", "meta": {"OBJECT_NAME": "DMSP 5D-3 F16 (USA 172)", "OBJECT_ID": "2003-048A", "EPOCH": "2025-12-13T16:48:24.867648", "MEAN_MOTION": 14.14424574, "ECCENTRICITY": 0.00064652, "INCLINATION": 99.0047, "RA_OF_ASC_NODE": 5.1648, "ARG_OF_PERICENTER": 317.9114, "MEAN_ANOMALY": 152.8557, "EPHEMERIS_TYPE": 0, "CLASSIFICATION_TYPE": "U", "NORAD_CAT_ID": 28054, "ELEMENT_SET_NO": 999, "REV_AT_EPOCH": 14326, "BSTAR": 0.00012835224, "MEAN_MOTION_DOT": 2e-06, "MEAN_MOTION_DDOT": 0}, "tle": {"line1": "1 28054U 03048A   25347.70028782  .00000200  00000+0  12835-3 0  9992", "line2": "2 28054  99.0047   5.1648 0006465 317.9114 152.8557 14.14424574143266"}}, "geometry": {"type": "Point", "coordinates": [11.811370012609352, -33.849200723910556]}}, {"type": "Feature", "properties": {"norad_id": 28912, "name": "METEOSAT-9 (MSG-2)", "group": "weather", "lat": 3.2609214523366776, "lon": -145.34400006243635, "alt_km": 35771.26969513125, "timestamp": "2025-12-14T05:42:18.098983+00:00", "meta": {"OBJECT_NAME": "METEOSAT-9 (MSG-2)", "OBJECT_ID": "2005-049B", "EPOCH": "2025-12-12T20:32:45.552192", "MEAN_MOTION": 1.00276669, "ECCENTRICITY": 0.00035766, "INCLINATION": 8.9401, "RA_OF_ASC_NODE": 55.9765, "ARG_OF_PERICENTER": 190.0838, "MEAN_ANOMALY": 189.6047, "EPHEMERIS_TYPE": 0, "CLASSIFICATION_TYPE": "U", "NORAD_CAT_ID": 28912, "ELEMENT_SET_NO": 999, "REV_AT_EPOCH": 513, "BSTAR": 0, "MEAN_MOTION_DOT": 1.32e-06, "MEAN_MOTION_DDOT": 0}, "tle": {"line1": "1 28912U 05049B   25346.85608278  .00000132  00000+0  00000+0 0  9998", "line2": "2 28912   8.9401  55.9765 0003576 190.0838 189.6047  1.00276669  5134"}}, "geometry": {"type": "Point", "coordinates": [-145.34400006243635, 3.2609214523366776]}}, {"type": "Feature", "properties": {"norad_id": 29522, "name": "DMSP 5D-3 F17 (USA 191)", "group": "weather", "lat": -81.1811997695843, "lon": 91.0788997928262, "alt_km": 845.3880459342208, "timestamp": "2025-12-14T05:42:18.099002+00:00", "meta": {"OBJECT_NAME": "DMSP 5D-3 F17 (USA 191)", "OBJECT_ID": "2006-050A", "EPOCH": "2025-12-13T14:51:39.168576", "MEAN_MOTION": 14.14920068, "ECCENTRICITY": 0.00094456, "INCLINATION": 98.7394, "RA_OF_ASC_NODE": 352.99, "ARG_OF_PERICENTER": 222.1254, "MEAN_ANOMALY": 137.9194, "EPHEMERIS_TYPE": 0, "CLASSIFICATION_TYPE": "U", "NORAD_CAT_ID": 29522, "ELEMENT_SET_NO": 999, "REV_AT_EPOCH": 98617, "BSTAR": 0.00015688848, "MEAN_MOTION_DOT": 2.6e-06, "MEAN_MOTION_DDOT": 0}, "tle": {"line1": "1 29522U 06050A   25347.61920334  .00000260  00000+0  15689-3 0  9999", "line2": "2 29522  98.7394 352.9900 0009445 222.1254 137.9194 14.14920068986170"}}, "geometry": {"type": "Point", "coordinates": [91.0788997928262, -81.1811997695843]}}, {"type": "Feature", "properties": {"norad_id": 32958, "name": "FENGYUN 3A", "group": "weather", "lat": 7.4049844132890765, "lon": -73.40339531358667, "alt_km": 826.2007636364388, "timestamp": "2025-12-14T05:42:18.099017+00:00", "meta": {"OBJECT_NAME": "FENGYUN 3A", "OBJECT_ID": "2008-026A", "EPOCH": "2025-12-13T16:08:11.394240", "MEAN_MOTION": 14.19515052, "ECCENTRICITY": 0.0007879, "INCLINATION": 98.6698, "RA_OF_ASC_NODE": 287.1795, "ARG_OF_PERICENTER": 307.4942, "MEAN_ANOMALY": 52.5517, "EPHEMERIS_TYPE": 0, "CLASSIFICATION_TYPE": "U", "NORAD_CAT_ID": 32958, "ELEMENT_SET_NO": 999, "REV_AT_EPOCH": 90908, "BSTAR": 0.00010870967, "MEAN_MOTION_DOT": 1.86e-06, "MEAN_MOTION_DDOT": 0}, "tle": {"line1": "1 32958U 08026A   25347.67235410  .00000186  00000+0  10871-3 0  9996", "line2": "2 32958  98.6698 287.1795 0007879 307.4942  52.5517 14.19515052909088"}}, "geometry": {"type": "Point", "coordinates": [-73.40339531358667, 7.4049844132890765]}}, {"type": "Feature", "properties": {"norad_id": 35491, "name": "GOES 14", "group": "weather", "lat": -0.5334535375317221, "lon": 58.031547240276865, "alt_km": 35838.37743676524, "timestamp": "2025-12-14T05:42:18.099031+00:00", "meta": {"OBJECT_NAME": "GOES 14", "OBJECT_ID": "2009-033A", "EPOCH": "2025-12-13T14:38:13.937856", "MEAN_MOTION": 1.00096206, "ECCENTRICITY": 7.107e-05, "INCLINATION": 1.2051, "RA_OF_ASC_NODE": 85.3891, "ARG_OF_PERICENTER": 164.8371, "MEAN_ANOMALY": 301.567, "EPHEMERIS_TYPE": 0, "CLASSIFICATION_TYPE": "U", "NORAD_CAT_ID": 35491, "ELEMENT_SET_NO": 999, "REV_AT_EPOCH": 473, "BSTAR": 0, "MEAN_MOTION_DOT": -1.4e-07, "MEAN_MOTION_DDOT": 0}, "tle": {"line1": "1 35491U 09033A   25347.60988354 -.00000014  00000+0  00000+0 0  9995", "line2": "2 35491   1.2051  85.3891 0000710 164.8371 301.5670  1.00096206  4735"}}, "geometry": {"type": "Point", "coordinates": [58.031547240276865, -0.5334535375317221]}}, {"type": "Feature", "properties": {"norad_id": 35951, "name": "DMSP 5D-3 F18 (USA 210)", "group": "weather", "lat": 43.73830992777248, "lon": 153.2380955240912, "alt_km": 837.377167352377, "timestamp": "2025-12-14T05:42:18.099045+00:00", "meta": {"OBJECT_NAME": "DMSP 5D-3 F18 (USA 210)", "OBJECT_ID": "2009-057A", "EPOCH": "2025-12-13T15:29:21.016032", "MEAN_MOTION": 14.1476969, "ECCENTRICITY": 0.00120458, "INCLINATION": 98.8835, "RA_OF_ASC_NODE": 324.0416, "ARG_OF_PERICENTER": 60.3616, "MEAN_ANOMALY": 299.8755, "EPHEMERIS_TYPE": 0, "CLASSIFICATION_TYPE": "U", "NORAD_CAT_ID": 35951, "ELEMENT_SET_NO": 999, "REV_AT_EPOCH": 83335, "BSTAR": 0.00020605917, "MEAN_MOTION_DOT": 3.53e-06, "MEAN_MOTION_DDOT": 0}, "tle": {"line1": "1 35951U 09057A   25347.64538213  .00000353  00000+0  20606-3 0  9994", "line2": "2 35951  98.8835 324.0416 0012045  60.3616 299.8755 14.14769690833354"}}, "geometry": {"type": "Point", "coordinates": [153.2380955240912, 43.73830992777248]}}, {"type": "Feature", "properties": {"norad_id": 36411, "name": "EWS-G2 (GOES 15)", "group": "weather", "lat": 0.45978358069946595, "lon": -129.90763346380078, "alt_km": 35765.804140165375, "timestamp": "2025-12-14T05:42:18.099060+00:00", "meta": {"OBJECT_NAME": "EWS-G2 (GOES 15)", "OBJECT_ID": "2010-008A", "EPOCH": "2025-12-13T12:01:43.925376", "MEAN_MOTION": 1.00270045, "ECCENTRICITY": 0.00056942, "INCLINATION": 0.816, "RA_OF_ASC_NODE": 86.0649, "ARG_OF_PERICENTER": 175.1161, "MEAN_ANOMALY": 63.0861, "EPHEMERIS_TYPE": 0, "CLASSIFICATION_TYPE": "U", "NORAD_CAT_ID": 36411, "ELEMENT_SET_NO": 999, "REV_AT_EPOCH": 5777, "BSTAR": 0, "MEAN_MOTION_DOT": 5.3e-07, "MEAN_MOTION_DDOT": 0}, "tle": {"line1": "1 36411U 10008A   25347.50120284  .00000053  00000+0  00000+0 0  9993", "line2": "2 36411   0.8160  86.0649 0005694 175.1161  63.0861  1.00270045 57770"}}, "geometry": {"type": "Point", "coordinates": [-129.90763346380078, 0.45978358069946595]}}, {"type": "Feature", "properties": {"norad_id": 36744, "name": "COMS 1", "group": "weather", "lat": -2.742948646565516, "lon": -63.179357613937434, "alt_km": 35782.73151409524, "timestamp": "2025-12-14T05:42:18.099074+00:00", "meta": {"OBJECT_NAME": "COMS 1", "OBJECT_ID": "2010-032A", "EPOCH": "2025-12-13T15:46:14.922624", "MEAN_MOTION": 1.00272245, "ECCENTRICITY": 9.252e-05, "INCLINATION": 4.3434, "RA_OF_ASC_NODE": 77.9886, "ARG_OF_PERICENTER": 198.745, "MEAN_ANOMALY": 170.5802, "EPHEMERIS_TYPE": 0, "CLASSIFICATION_TYPE": "U", "NORAD_CAT_ID": 36744, "ELEMENT_SET_NO": 999, "REV_AT_EPOCH": 4923, "BSTAR": 0, "MEAN_MOTION_DOT": -3.3e-06, "MEAN_MOTION_DDOT": 0}, "tle": {"line1": "1 36744U 10032A   25347.65711716 -.00000330  00000+0  00000+0 0  9990", "line2": "2 36744   4.3434  77.9886 0000925 198.7450 170.5802  1.00272245 49233"}}, "geometry": {"type": "Point", "coordinates": [-63.179357613937434, -2.742948646565516]}}, {"type": "Feature", "properties": {"norad_id": 37214, "name": "FENGYUN 3B", "group": "weather", "lat": 76.33749972242535, "lon": -111.13292561159732, "alt_km": 840.3234154057636, "timestamp": "2025-12-14T05:42:18.099087+00:00", "meta": {"OBJECT_NAME": "FENGYUN 3B", "OBJECT_ID": "2010-059A", "EPOCH": "2025-12-13T16:21:14.471136", "MEAN_MOTION": 14.14790276, "ECCENTRICITY": 0.00220281, "INCLINATION": 98.9911, "RA_OF_ASC_NODE": 27.665, "ARG_OF_PERICENTER": 355.1623, "MEAN_ANOMALY": 153.1456, "EPHEMERIS_TYPE": 0, "CLASSIFICATION_TYPE": "U", "NORAD_CAT_ID": 37214, "ELEMENT_SET_NO": 999, "REV_AT_EPOCH": 78119, "BSTAR": 6.8358693e-05, "MEAN_MOTION_DOT": 8.7e-07, "MEAN_MOTION_DDOT": 0}, "tle": {"line1": "1 37214U 10059A   25347.68141749  .00000087  00000+0  68359-4 0  9992", "line2": "2 37214  98.9911  27.6650 0022028 355.1623 153.1456 14.14790276781193"}}, "geometry": {"type": "Point", "coordinates": [-111.13292561159732, 76.33749972242535]}}, {"type": "Feature", "properties": {"norad_id": 37849, "name": "SUOMI NPP", "group": "weather", "lat": -33.39451282787691, "lon": -68.5883804123333, "alt_km": 834.5299003867303, "timestamp": "2025-12-14T05:42:18.099098+00:00", "meta": {"OBJECT_NAME": "SUOMI NPP", "OBJECT_ID": "2011-061A", "EPOCH": "2025-12-13T16:19:50.956032", "MEAN_MOTION": 14.19514532, "ECCENTRICITY": 0.00022748, "INCLINATION": 98.7774, "RA_OF_ASC_NODE": 285.0135, "ARG_OF_PERICENTER": 118.5876, "MEAN_ANOMALY": 241.5529, "EPHEMERIS_TYPE": 0, "CLASSIFICATION_TYPE": "U", "NORAD_CAT_ID": 37849, "ELEMENT_SET_NO": 999, "REV_AT_EPOCH": 73212, "BSTAR": 8.98872e-05, "MEAN_MOTION_DOT": 1.45e-06, "MEAN_MOTION_DDOT": 0}, "tle": {"line1": "1 37849U 11061A   25347.68045088  .00000145  00000+0  89887-4 0  9993", "line2": "2 37849  98.7774 285.0135 0002274 118.5876 241.5529 14.19514532732128"}}, "geometry": {"type": "Point", "coordinates": [-68.5883804123333, -33.39451282787691]}}]}